Replace "Jupiter" "Sol"
{

  Texture "Jupiter.png"
  HazeColor [ 0.2 0.05 0.01 ]
  HazeDensity 0.3
  SpecularPower 5.0
  NightTexture "JupiterNight.png"

  Atmosphere {
    Height 300
    Lower [ 0.3 0.2 0.2 ]
    Upper [ 0.1 0.05 0.05 ]
    Sky [ 0.3 0.2 0.2 ]
    Sunset [ 0.4 0.2 0.1 ]

    Mie 0.0002
    MieAsymmetry -0.15
    Rayleigh [ 0.0002 0.0001 0.00005 ]
    Absorption [ 0 0 0 ]
    MieScaleHeight 20
  }

  Radius 71492 # equatorial
  Oblateness 0.0649

  Rings
  {
    Inner   102200
    Outer  227000
    Texture "JupiterRings.png"
  }

  Timeline
  [
  # Before SPICE
   {
    CustomOrbit "vsop87-jupiter"
    BodyFrame {  EquatorJ2000 { Center "Sol"}}
    Ending   "1550 02 27 00:00:00.000"  # add 1 month for orbit drawing
    CustomRotation "iau-jupiter"
  }
  # SPICE
  {
    OrbitFrame { EclipticJ2000 { Center "Sol/Jupiter_bary"}}
    BodyFrame  { EclipticJ2000 { Center "Sol"             }}
    Ending    "2649 11 25 00:00:00.000"  # less 2 month for orbit
    SpiceOrbit
    {
      Kernel "de436.bsp"
      Target "5"
      Origin "5"
      Period 11.8618
      BoundingRadius 1e10
    }

    SpiceRotation
    {
      Kernel           [  "pck00010.tpc"  "naif0012.tls"  ]
      Frame               "IAU_JUPITER"
    }
  }
  # After SPICE
  {
    CustomOrbit "vsop87-jupiter"
    BodyFrame { EquatorJ2000 { Center "Sol"}}
    CustomRotation "iau-jupiter"
   }
  ]
}

##################
### jup310.bsp ###
##################

Replace "Io" "Sol/Jupiter"
{
  Texture "Io.png"
  NormalMap "IoNormal.png"
  NightTexture "IoNight.png"
  SemiAxes [ 1829.4 1819.3 1815.7 ]
  OrbitColor [ 0.5 0.2 0.2 ]
  Timeline
  [
  # Before Spice
  {
    OrbitFrame { EclipticJ2000 { Center "Sol/Jupiter_bary"}}
    BodyFrame { EquatorJ2000 { Center "Sol/Jupiter"}}
    Ending    "1900 02 01 00:00:41.183  " # add 1 month for drawing orbit

    EllipticalOrbit
    {
      Epoch        2415051.500000000              # 
      Eccentricity       4.698380555991260E-03    # EC
      AscendingNode      3.386546022984761E+02    # OM
      SemiMajorAxis      4.221288103382803E+05    # A
      ArgOfPericenter    6.119257137657716E+01    # W
      MeanAnomaly        3.403213364178930E+01    # MA
      Inclination        2.225242991908296E+00    # IN
      Period             1.771960654170738E+00    # PR
    }
    CustomRotation "iau-io"
  }
  # SPICE
  {
    OrbitFrame { EclipticJ2000 { Center "Sol/Jupiter_bary" }}
    BodyFrame  { EclipticJ2000 { Center "Sol/Jupiter"      }}
    Ending    "2099 12 01 00:01:07.183"   # minus 1 month for drawing orbit

    SpiceOrbit
    {
      Kernel "jup310.bsp"
      Target "501"
      Origin "5"
      Period         1.769138
      BoundingRadius 1e10
    }

    SpiceRotation
    {
      Kernel           [  "pck00010.tpc"  "naif0012.tls"  ]
      Frame               "IAU_IO"
     # Period               42.459312
    }
  }
  # After spice
  {
    OrbitFrame { EclipticJ2000 { Center "Sol/Jupiter_bary" }}
    BodyFrame  { EquatorJ2000  { Center "Sol/Jupiter" }}

    EllipticalOrbit
    {
      Epoch        2488038.500000000              # 2099 12 02
      Eccentricity       4.175348838896003E-03    # well Ecc. EC
      AscendingNode      3.388763045703885E+02    # Deg. OM
      SemiMajorAxis      4.218699151657117E+05    # Km. A
      ArgOfPericenter    7.627078622808591E+01    # Deg. W
      MeanAnomaly        2.673230986792317E+02    # Deg. MA
      Inclination        2.197255315652924E+00    # Deg. IN
      Period             1.770330766438162E+00    # days PR
    }
    CustomRotation "iau-io"
   }
  ]
}

Replace "Europa" "Sol/Jupiter"
{
  Texture "Europa.png"
  SemiAxes [ 1564.13 1561.23 1560.93 ]
  # Radius 1562.09
  OrbitColor [ 0.5 0.2 0.2 ]

  Timeline
  [
  # Before spice
  {
    OrbitFrame { EclipticJ2000 { Center "Sol/Jupiter_bary" }}
    BodyFrame  { EquatorJ2000  { Center "Sol/Jupiter" }}
    Ending    "1900 02 01 00:00:41.183  " # add 1 month for drawing orbit

    EllipticalOrbit
    {
      Epoch        2415051.500000000              # 1900 02 01
      Eccentricity       9.164134125921288E-03    # well Ecc.
      AscendingNode      3.306442056587801E+02    # Deg. OM
      SemiMajorAxis      6.713055311571993E+05    # Km. A
      ArgOfPericenter    2.431341697553788E+02    # Deg. W
      MeanAnomaly        2.003983039107400E+02    # Deg. MA
      Inclination        2.580361215468598E+00    # Deg. IN
      Period             3.553470761999806E+00    # days PR
    }
    CustomRotation "iau-europa"

  }
  # SPICE
  {
    OrbitFrame { EclipticJ2000 { Center "Sol/Jupiter_bary" }}
    BodyFrame  { EclipticJ2000 { Center "Sol/Jupiter"      }}
    Ending    "2099 12 01 00:01:07.183"   # minus 1 month for drawing orbit

    SpiceOrbit
    {
      Kernel "jup310.bsp"
      Target "502"
      Origin "5"
      Period  3.551810
      BoundingRadius 1e10
    }

    SpiceRotation
    {
      Kernel          [   "pck00010.tpc"  "naif0012.tls"  ]
      Frame               "IAU_EUROPA"
    }
  }
  # After spice
  {
    OrbitFrame { EclipticJ2000 { Center "Sol/Jupiter_bary"}}
    BodyFrame { EquatorJ2000 { Center "Sol/Jupiter"}}

    EllipticalOrbit
    {
      Epoch        2488038.500000000              # 2099 12 02
      Eccentricity       9.224960689495068E-03    # well Ec
      AscendingNode      3.499567750194527E+02    # Deg. OM
      SemiMajorAxis      6.710504987060047E+05    # Km. A
      ArgOfPericenter    2.492353871404621E+02    # Deg. W
      MeanAnomaly        1.320702008386561E+02    # Deg. MA
      Inclination        2.192894273386658E+00    # Deg. IN
      Period             3.551445981392012E+00    # days PR
    }
    CustomRotation "iau-europa"
   }
  ]
}

Replace "Ganymede" "Sol/Jupiter"
{
  Texture    "Ganymede.png"
  NormalMap  "GanymedeNormal.png"
  SemiAxes [ 2631.2 2631.2 2631.2 ]
  OrbitColor [ 0.5 0.2 0.2 ]
  Timeline
  [
  # Before spice
  {
    OrbitFrame { EclipticJ2000 { Center "Sol/Jupiter_bary" }}
    BodyFrame  { EquatorJ2000  { Center "Sol/Jupiter" }}
    Ending    "1900 02 01 00:00:41.183  " # add 1 month for drawing orbit

    EllipticalOrbit
    {
      Epoch        2415051.500000000              # 1900 02 01
      Eccentricity       2.332604945630837E-03    # well Ecc.
      AscendingNode      3.381666861464131E+02    # Deg. OM
      SemiMajorAxis      1.070552204404691E+06    # Km. A
      ArgOfPericenter    3.930462634608413E+00    # Deg. W
      MeanAnomaly        3.323453262316041E+02    # Deg. MA
      Inclination        2.322012243720252E+00    # Deg. IN
      Period             7.156794607863700E+00    # days PR
    }
    CustomRotation "iau-ganymede"
  }

  # spice
  {
    OrbitFrame { EclipticJ2000 { Center "Sol/Jupiter_bary" }}
    BodyFrame  { EclipticJ2000 { Center "Sol/Jupiter"      }}
    Ending    "2099 12 01 00:01:07.183"   # minus 1 month for drawing orbit

    SpiceOrbit
    {
      Kernel "jup310.bsp"
      Target "503"
      Origin "5"
      Period         7.154553
      BoundingRadius 1e10
    }

    SpiceRotation
    {
      Kernel          [   "pck00010.tpc"  "naif0012.tls"  ]
      Frame               "IAU_GANYMEDE"
    }
  }
  # After spice
  {
    OrbitFrame { EclipticJ2000 { Center "Sol/Jupiter_bary" }}
    BodyFrame  { EquatorJ2000  { Center "Sol/Jupiter" }}

    EllipticalOrbit
    {
      Epoch        2488038.500000000              # 2099 12 02
      Eccentricity       2.181924296728704E-03    # well Ecc.
      AscendingNode      3.373184754862495E+02    # Deg. OM
      SemiMajorAxis      1.070705968365682E+06    # Km. A
      ArgOfPericenter    1.383648296415033E+02    # Deg. W
      MeanAnomaly        9.930018775276196E+00    # Deg. MA
      Inclination        1.937659169613495E+00    # Deg. IN  
      Period             7.158336564336593E+00    # days PR
    }
    CustomRotation "iau-ganymede"
   }
  ]
}

